{
"rechenzentren": [
  {"name":"RelAix Networks GmbH", "street":"Kackertstraße", "number":"10", "locality":"Aachen", "zip":"52072", "web":"https://www.relaix.net", "mail":"info@relaix.net"},
  {"name":"centrom GmbH", "street":"Heganger", "number":"29", "locality":"Hallstadt", "zip":"96103", "web":"http://www.rz-bamberg.de", "mail":"info@centron.de"},
  {"name":"euNetworks", "street":"Leopoldstraße", "number":"16", "locality":"Düsseldorf", "zip":"40211", "web":"http://www.eunetworks.com", "mail":"noc@eunetworks.com"},
  {"name":"euNetworks", "street":"Juri-Gargarin-Ring", "number":"86", "locality":"Erfurt", "zip":"99084", "web":"http://www.eunetworks.com", "mail":"noc@eunetworks.com"},
  {"name":"euNetworks", "street":"Jahnplatz / Niederwall", "number":"2", "locality":"Bielefeld", "zip":"33602", "web":"http://www.eunetworks.com", "mail":"noc@eunetworks.com"},
  {"name":"euNetworks", "street":"Holzkoppelweg", "number":"17", "locality":"Kiel", "zip":"24118", "web":"http://www.eunetworks.com", "mail":"noc@eunetworks.com"},
  {"name":"euNetworks", "street":"Frankenallee", "number":"71-81", "locality":"Frankfurt am Main", "zip":"60327", "web":"http://www.eunetworks.com", "mail":"noc@eunetworks.com"},
  {"name":"euNetworks", "street":"Wendenstraße", "number":"408", "locality":"Hamburg", "zip":"20537", "web":"http://www.eunetworks.com", "mail":"noc@eunetworks.com"},
  {"name":"euNetworks", "street":"Albert-Nestler-Straße", "number":"7", "locality":"Karlsruhe", "zip":"76131", "web":"http://www.eunetworks.com", "mail":"noc@eunetworks.com"},
  {"name":"euNetworks", "street":"Lessingstraße", "number":"26", "locality":"Rostock", "zip":"18055", "web":"http://www.eunetworks.com", "mail":"noc@eunetworks.com"},
  {"name":"euNetworks", "street":"Maximilian Allee", "number":"2-4", "locality":"Leipzig", "zip":"04129", "web":"http://www.eunetworks.com", "mail":"noc@eunetworks.com"},
  {"name":"euNetworks", "street":"Erzberger Straße", "number":"1", "locality":"Magdeburg", "zip":"39104", "web":"http://www.eunetworks.com", "mail":"noc@eunetworks.com"},
  {"name":"euNetworks", "street":"Alboinstraße", "number":"36-42", "locality":"Berlin", "zip":"12103", "web":"http://www.eunetworks.com", "mail":"noc@eunetworks.com"},
  {"name":"euNetworks", "street":"Fuerther Straße", "number":"212", "locality":"Nürnberg", "zip":"90429", "web":"http://www.eunetworks.com", "mail":"noc@eunetworks.com"},
  {"name":"euNetworks", "street":"Pfingstweidstraße", "number":"16", "locality":"Mannheim", "zip":"68199", "web":"http://www.eunetworks.com", "mail":"noc@eunetworks.com"},
  {"name":"euNetworks", "street":"Zettachring", "number":"10", "locality":"Stuttgart", "zip":"70567", "web":"http://www.eunetworks.com", "mail":"noc@eunetworks.com"},
  {"name":"euNetworks", "street":"Arnulfstraße", "number":"197", "locality":"München", "zip":"80634", "web":"http://www.eunetworks.com", "mail":"noc@eunetworks.com"},
  {"name":"euNetworks", "street":"Elisabeth-Selbert-Straße", "number":"7", "locality":"München", "zip":"80939", "web":"http://www.eunetworks.com", "mail":"noc@eunetworks.com"},
  {"name":"euNetworks", "street":"Hertzstraße", "number":"2", "locality":"Wuerzburg", "zip":"13237", "web":"http://www.eunetworks.com", "mail":"noc@eunetworks.com"},
  {"name":"euNetworks", "street":"Hermann-Ritter-Straße", "number":"106", "locality":"Bremen", "zip":"28197", "web":"http://www.eunetworks.com", "mail":"noc@eunetworks.com"},
  {"name":"euNetworks", "street":"Theodor-Babilon-Straße", "number":"1-3", "locality":"Köln", "zip":"50679", "web":"http://www.eunetworks.com", "mail":"noc@eunetworks.com"},
  {"name":"euNetworks", "street":"Im Spaehefelde", "number":"51", "locality":"Dortmund", "zip":"44143", "web":"http://www.eunetworks.com", "mail":"noc@eunetworks.com"},
  {"name":"euNetworks", "street":"Hachestraße", "number":"2-8", "locality":"Essen", "zip":"45127", "web":"http://www.eunetworks.com", "mail":"noc@eunetworks.com"},
  {"name":"euNetworks", "street":"Friedrich-List-Platz", "number":"2", "locality":"Dresden", "zip":"01069", "web":"http://www.eunetworks.com", "mail":"noc@eunetworks.com"},
  {"name":"DNS:NET Internet Service GmbH", "street":"Lützowstraße", "number":"105", "locality":"Berlin", "zip":"10785", "web":"http://www.dns-net.de/rechenzentren.php", "mail":"info@dns-net.de"},
  {"name":"e-shelter facility services GmbH", "street":"Nonnendammallee", "number":"15-21", "locality":"Berlin", "zip":"13599", "web":"http://www.e-shelter.com", "mail":"info@e-shelter.de"},
  {"name":"Speedbone Internet & Connectivity GmbH", "street":"Alboinstraße", "number":"36-42", "locality":"Berlin", "zip":"12103", "web":"http://www.speedbone.de", "mail":"info@speedbone.de"},
  {"name":"Versatel AG", "street":"Gradestraße", "number":"40", "locality":"Berlin", "zip":"12347", "web":"http://www.versatel.de/business", "mail":"info@versatel.de"},
  {"name":"Level 3 Communications", "street":"Gradestraße", "number":"60", "locality":"Berlin", "zip":"12347", "web":"http://www.level3.com", "mail":"media.relations@level3.com"},
  {"name":"Pixelpark AG", "street":"Lützowstraße", "number":"105", "locality":"Berlin", "zip":"10785", "web":"http://www.pixelpark.com/de/pixelpark", "mail":"info@pixelpark.com "},
  {"name":"IPB GmbH", "street":"Lützowstraße", "number":"105/106", "locality":"Berlin", "zip":"10785", "web":"http://www.ipb.de", "mail":"kontakt@ipb.de"},
  {"name":"I.T.E.N.O.S. GmbH", "street":"Lützowstraße", "number":"105/106", "locality":"Berlin", "zip":"10785", "web":"https://www.itenos.de", "mail":" info@itenos.de"},
  {"name":"Global Crossing United", "street":"Kitzingstraße", "number":"15-18", "locality":"Berlin", "zip":"12277", "web":"http://www.globalcrossing.de", "mail":"media.relations@level3.com"},
  {"name":"Colt Technology Services", "street":" ", "number":"", "locality":"Berlin", "zip":"10533", "web":"http://www.colt.net", "mail":""},
  {"name":"Colo-Berlin", "street":"Lorenzweg", "number":"5", "locality":"Berlin", "zip":"12099", "web":"http://www.colo-berlin.de", "mail":""},
  {"name":"Interoute Communications Ltd", "street":"Albert Einstein Ring", "number":"17-25", "locality":"Kleinmachow", "zip":"14532", "web":"http://www.interoute.com", "mail":"info@interoute.com"},
  {"name":"Interoute Communications Ltd", "street":"Bruhler Straße", "number":"26a", "locality":"Bonn", "zip":"53119", "web":"http://www.interoute.com", "mail":"info@interoute.com"},
  {"name":"Interoute Communications Ltd", "street":"Stockholmerallee", "number":"24", "locality":"Dortmund", "zip":"44269", "web":"http://www.interoute.com", "mail":"info@interoute.com"},
  {"name":"Interoute Communications Ltd", "street":"Max-Planck-Straße", "number":"36", "locality":"Hurth", "zip":"50354", "web":"http://www.interoute.com", "mail":"info@interoute.com"},
  {"name":"Interoute Communications LTD", "street":"Marie Curie Straße", "number":"7", "locality":"Dresden", "zip":"01139", "web":"http://www.interoute.com", "mail":"info@interoute.com"},
  {"name":"Interoute Communications Ltd", "street":"Weismuller Straße", "number":"26", "locality":"Frankfurt am Main", "zip":"60314", "web":"http://www.interoute.com", "mail":"info@interoute.com"},
  {"name":"Interoute Communications Ltd", "street":"Schwalbacher Straße", "number":"60-62", "locality":"Eschborn", "zip":"65760", "web":"http://www.interoute.com", "mail":"info@interoute.com"},
  {"name":"Interoute Communications Ltd", "street":"Großmoorbogen", "number":"25", "locality":"Hamburg", "zip":"http://www.interoute.com", "web":" ", "mail":"info@interoute.com"},
  {"name":"Interoute Communications Ltd", "street":"Ludwig Ehrhard Straße", "number":"57", "locality":"Leipzig", "zip":"04103", "web":"http://www.interoute.com", "mail":"info@interoute.com"},
  {"name":"Interoute Communications Ltd", "street":"Elisabeth-Selber-Straße", "number":"1", "locality":"München", "zip":"80939", "web":"http://www.interoute.com", "mail":"info@interoute.com"},
  {"name":"Interoute Communications Ltd", "street":"Robert-Bosch-Straße", "number":"12", "locality":"Garching", "zip":"85748", "web":"http://www.interoute.com", "mail":"info@interoute.com"},
  {"name":"Interoute Communications Ltd", "street":"Industriestraße", "number":"15", "locality":"Nürnberg", "zip":"70565", "web":"http://www.interoute.com", "mail":"info@interoute.com"},
  {"name":"Interoute Communications Ltd", "street":"Ellerstraße", "number":"101", "locality":"Düsseldorf", "zip":"40721", "web":"http://www.interoute.com", "mail":"info@interoute.com"},
  {"name":"Lampertz / Rittal", "street":"Industriestraße", "number":"24", "locality":"Hof", "zip":"56472", "web":"http://www.lampertz.com", "mail":""},
  {"name":"MTI Technology Ltd", "street":"Teilungsweg", "number":"28", "locality":"Essen", "zip":"45329", "web":"http://www.mti.de", "mail":""},
  {"name":"MTI Technology Ltd", "street":"Hermann-Ritter-Straße", "number":"104", "locality":"Bremen", "zip":"28359", "web":"http://www.mti.de", "mail":""},
  {"name":"MTI Technology Ltd", "street":"Revier Straße", "number":"9", "locality":"Dortmund", "zip":"44379", "web":"http://www.mti.de", "mail":""},
  {"name":"MTI Technology Ltd", "street":"Marie Curie Straße", "number":"7", "locality":"Dresden", "zip":"01139", "web":"http://www.mti.de", "mail":""},
  {"name":"MTI Technology Ltd", "street":"In der Steele", "number":"37 A", "locality":"Düsseldorf", "zip":"40599", "web":"http://www.mti.de", "mail":""},
  {"name":"MTI Technology Ltd", "street":"Wendenstraße", "number":"408", "locality":"Hamburg", "zip":"20537", "web":"http://www.mti.de", "mail":""},
  {"name":"MTI Technology Ltd", "street":"Hans Thoma Straße", "number":"15-17", "locality":"Mannheim", "zip":"68163", "web":"http://www.mti.de", "mail":""},
  {"name":"MTI Technology Ltd", "street":"Elly-Staegmeyr-Straße", "number":"8", "locality":"München", "zip":"80999", "web":"http://www.mti.de", "mail":""},
  {"name":"MTI Technology Ltd", "street":"Ruppmannstraße", "number":"33", "locality":"Stuttgart", "zip":"70765", "web":"http://www.mti.de", "mail":""},
  {"name":"PLUTEX GmbH", "street":"Hermann-Ritter-Straße", "number":"108", "locality":"Bremen", "zip":"28215", "web":"http://www.plutex.de", "mail":"info@plutex.de"},
  {"name":"United Colo GmbH", "street":"Sonntagsanger", "number":"1", "locality":"Coburg", "zip":"96450", "web":"http://www.unitedcolo.de", "mail":"info@unitedcolo.de"},
  {"name":"Surfplanet GmbH", "street":"Am Springborn", "number":"1", "locality":"Köln", "zip":"51063", "web":"http://www.surfplanet.de", "mail":"info@surfplanet.de"},
  {"name":"Host Europe GmbH", "street":"Hansestraße", "number":"109", "locality":"Köln", "zip":"51149 ", "web":"http://www.hosteurope.de", "mail":"info@hosteurope.de"},
  {"name":"internet24 GmbH", "street":"Annenstraße", "number":"5", "locality":"Dresden", "zip":"01067", "web":"http://www.internet24.de", "mail":"info@internet24.de"},
  {"name":"TeliaSonera International Carrier", "street":"Overbeckstraße", "number":"41a", "locality":"Dresden", "zip":"01139", "web":"http://www.teliasoneraic.com", "mail":"carrier-csc@teliasonera.com"},
  {"name":"myLoc Managed IT AG", "street":"Am Gatherhof", "number":"44", "locality":"Düsseldorf", "zip":"40472", "web":"http://www.myloc.de", "mail":"vertrieb@myloc.de"},
  {"name":"Equinix, Inc", "street":"Albertstraße", "number":"27", "locality":"Düsseldorf", "zip":"40233", "web":"http://www.equinix.com", "mail":"servicedesk.de@eu.equinix.com"},
  {"name":"Equinix, Inc", "street":"Henkelstraße", "number":"67", "locality":"Düsseldorf", "zip":"40589", "web":"http://www.equinix.com", "mail":"servicedesk.de@eu.equinix.com"},
  {"name":"equinix", "street":"Am Moosfeld", "number":"37", "locality":"München", "zip":"81820", "web":"http://www.equinix.de", "mail":"servicedesk.de@eu.equinix.com"},
  {"name":"equinix", "street":"Seidlstraße", "number":"3", "locality":"München", "zip":"80335", "web":"http://www.equinix.de", "mail":"servicedesk.de@eu.equinix.com"},
  {"name":"Equinix, Inc", "street":"Lärchenstraße", "number":"110", "locality":"Frankfurt am Main", "zip":"65933", "web":"http://www.equinix.de", "mail":"servicedesk.de@eu.equinix.com"},
  {"name":"Equinix, Inc", "street":"Starkenburgstraße", "number":"12", "locality":"Frankfurt am Main", "zip":"64546", "web":"http://www.equinix.de", "mail":"servicedesk.de@eu.equinix.com"},
  {"name":"Equinix, Inc", "street":"Taubenstraße", "number":"7-9", "locality":"Frankfurt am Main", "zip":"60313", "web":"http://www.equinix.de", "mail":"servicedesk.de@eu.equinix.com"},
  {"name":"Equinix, Inc", "street":"Kruppstraße", "number":"121-127", "locality":"Frankfurt am Main", "zip":"60388", "web":"http://www.equinix.de", "mail":"servicedesk.de@eu.equinix.com"},
  {"name":"Global Crossing Liited", "street":"In der Steele", "number":"35", "locality":"Düsseldorf", "zip":"40599", "web":"http://www.globalcrossing.de", "mail":""},
  {"name":"Interxion", "street":"In der Steele", "number":"29", "locality":"Düsseldorf", "zip":"40599", "web":"http://www.interxion.com", "mail":"de.info@interxion.com"},
  {"name":"Koninklijke KPN N.V", "street":"Vogelsanger Weg", "number":"91", "locality":"Düsseldorf", "zip":"40470", "web":"http://www.kpn.de", "mail":""},
  {"name":"Level 3 Communications", "street":"In der Steele", "number":"37 A", "locality":"Düsseldorf", "zip":"40599", "web":"http://www.level3.com", "mail":"vertrieb@level3.com"},
  {"name":"TeliSonera International Carrier", "street":"In der Steele", "number":"43", "locality":"Düsseldorf", "zip":"40599", "web":"http://www.teliasoneraic.com", "mail":"carrier-csc@teliasonera.com"},
  {"name":"comtrance GmbH", "street":"In der Steele", "number":"43", "locality":"Düsseldorf", "zip":"40599", "web":"http://www.comtrance.net", "mail":""},
  {"name":"MESH GmbH", "street":"In der Steele", "number":"43", "locality":"Düsseldorf", "zip":"40599", "web":"http://www.mesh.eu", "mail":"info@plusserver.de"},
  {"name":"Hetzner Online AG", "street":"Am Datacenterpark", "number":"1", "locality":"Falkenstein", "zip":"08223", "web":"http://www.hetzner.de", "mail":"info@hetzner.de"},
  {"name":"wusys", "street":"Villbeler Landstraße", "number":"225", "locality":"Frankfurt am Main", "zip":"60388", "web":"http://www.wuysy.com", "mail":""},
  {"name":"First Colo GmbH", "street":"Hanauer Landstraße", "number":"291b", "locality":"Frankfurt am Main", "zip":"60314", "web":"https://www.first-colo.com", "mail":"info@first-colo.net"},
  {"name":"WiTCOM Wiesbadaner Informations- und Telekommunikations GmbH", "street":"Weidenbornstraße", "number":"1", "locality":"Wiesbaden", "zip":"65189", "web":"http://www.witcom.de",
    "mail":"info@witcom.de"},
  {"name":"Mainlab GmbH", "street":"Sachsenhäuser Landwehrweg", "number":"236", "locality":"Frankfurt am Main", "zip":"60598", "web":"http://www.rackbase.de", "mail":"info@rackbase.de"},
  {"name":"MK Netzdienste GmbH und Co. KG", "street":"Frankenallee", "number":"71", "locality":"Frankfurt am Main", "zip":"60314", "web":"http://www.mk.de", "mail":"info@mk.de"},
  {"name":"aixit GmbH", "street":"Strahlenbergerstraße", "number":"14", "locality":"Offenbach am Main", "zip":"63067", "web":"http://www.aixit.com", "mail":"info@aixit.com"},
  {"name":"aixit GmbH", "street":"Boersenlpatz", "number":"13-15", "locality":"Frankfurt am Main", "zip":"60313", "web":"http://www.aixit.com", "mail":"info@aixit.com"},
  {"name":"ColoCenter Frankfurt am Main GmbH", "street":"Schwalbacher Straße", "number":"60", "locality":"Eschborn", "zip":"65760", "web":"http://www.colocenter.de", "mail":"info@colocenter-ffm.de"},
  {"name":"I.T.E.N.O.S. GmbH", "street":"Rebstöckerstraße", "number":"25-31", "locality":"Frankfurt am Main", "zip":"60326", "web":"http://www.itenos.de", "mail":"info@itenos.de"},
  {"name":"e-shelter facility services GmbH", "street":"Eschborner Landstraße", "number":"100", "locality":"Frankfurt am Main", "zip":"60489", "web":"http://www.e-shelter.de", "mail":"info@e-shelter.de"},
  {"name":"INTERNET AG Global Network", "street":"Wiesenhüttenplatz", "number":"26", "locality":"Frankfurt am Main", "zip":"60329", "web":"http://www.internic.de", "mail":"info@inet.de"},
  {"name":"Equinix, Inc", "street":"Kleyerstraße", "number":"90", "locality":"Frankfurt am Main", "zip":"60326", "web":"http://www.equinix.com", "mail":"servicedesk.de@eu.equinix.com"},
  {"name":"Telehouse Europe", "street":"Kleyerstraße", "number":"94", "locality":"Frankfurt am Main", "zip":"60326", "web":"http://www.databurg.de", "mail":"info@databurg.de"},
  {"name":"Interxion", "street":"Hanauer Landstraße", "number":"298", "locality":"Frankfurt am Main", "zip":"60314", "web":"http://www.interxion.com", "mail":"de.info@interxion.com"},
  {"name":"NewColo GmbH", "street":"Mainzer Landstraße", "number":"351-353", "locality":"Frankfurt am Main", "zip":"60326", "web":"http://www.newcolo.de", "mail":"info@newcolo.de"},
  {"name":"TelecityGroup", "street":"Lyonerstraße", "number":"28", "locality":"Frankfurt am Main", "zip":"60528", "web":"http://www.telecitygroup.com", "mail":"info@telecity.de"},
  {"name":"TelecityGroup", "street":"Gutleutstraße", "number":"310", "locality":"Frankfurt am Main", "zip":"60327", "web":"http://www.telecitygroup.com", "mail":"info@telecity.de"},
  {"name":"Level 3 Communications", "street":"Rüsselheimer Straße", "number":"22", "locality":"Frankfurt am Main", "zip":"60489", "web":"http://www.level3.com", "mail":"vertrieb@level3.com"},
  {"name":"TeliaSonera International Carrier", "street":"Kleyerstraße", "number":"88", "locality":"Frankfurt am Main", "zip":"60326", "web":"http://www.teliasoneraic.com", "mail":"carrier-csc@teliasonera.com"},
  {"name":"TeliaSonera International Carrier", "street":"Rebstöcker Straße", "number":"55", "locality":"Frankfurt am Main", "zip":"60326", "web":"http://www.teliasoneraic.com", "mail":"carrier-csc@teliasonera.com"},
  {"name":"e-shelter facility services GmbH", "street":"Hanauer Landstraße", "number":"320", "locality":"Frankfurt am Main", "zip":"60314", "web":"http://www.e-shelter.de", "mail":"info@e-shelter.de"},
  {"name":"Tiscali International Network B.V.", "street":"Hanauer Landstraße", "number":"296", "locality":"Frankfurt am Main", "zip":"60314", "web":"http://www.tiscali.net", "mail":"ir@tiscali.com"},
  {"name":"WitCOM Wiesbadener Informations- und Telekommunikations GmbH", "street":"Konrad-Adenauer-Ring", "number":"60", "locality":"Wiesbaden", "zip":"65187", "web":"http://www.witcom.de", "mail":"info@witcom.de"},
  {"name":"Accelerated IT Services GmbH", "street":"Kruppstraße", "number":"105", "locality":"Frankfurt am Main", "zip":"60388", "web":"http://www.accelerated.de", "mail":"info@accelerated.de"},
  {"name":"Cogent Communications, Inc.", "street":"Lyoner Straße", "number":"15", "locality":"Frankfurt am Main", "zip":"60528", "web":"http://www.cogentco.com", "mail":"de-info@cogentco.com"},
  {"name":"BT (Germany)", "street":"Leonard-Heißwolf-Straße", "number":"4", "locality":"Frankfurt am Main", "zip":"65936", "web":"http://www.globalservices.bt.com", "mail":"information@bt.com"},
  {"name":"ANETSIS.NET", "street":"Gerbermühlstraße", "number":"32", "locality":"Frankfurt am Main", "zip":"60594", "web":"http://www.anetsis.net", "mail":""},
  {"name":"Top-Colo", "street":"Kleyerstraße", "number":"79", "locality":"Frankfurt am Main", "zip":"60326", "web":"http://www.top-colo.de", "mail":"mail@top-colo.de"},
  {"name":"Telehouse Europe", "street":"Kleyerstraße", "number":"79-89", "locality":"Frankfurt am Main", "zip":"60326", "web":"http://www.telehouse.de", "mail":""},
  {"name":"infuracom GmbH", "street":"Hanauer Landstraße", "number":"300", "locality":"Frankfurt am Main", "zip":"60314", "web":"http://www.infuracom.net", "mail":""},
  {"name":"Colt Technology Services", "street":"Herriotstraße", "number":"4", "locality":"Frankfurt am Main", "zip":"60528", "web":"http://www.colt.net", "mail":""},
  {"name":"DARZ GmbH", "street":"Julius-Reiber-Straße", "number":"11", "locality":"Darmstadt", "zip":"64293", "web":"http://da-rz.de", "mail":"info@da-rz.de"},
  {"name":"wilhelm.tel GmbH", "street":"Heidenbergstraße", "number":"101-111", "locality":"Norderstedt", "zip":"22846", "web":"http://www.wilhelm-tel.de", "mail":"info@wilhelm-tel.de"},
  {"name":"GlobalConnect A/S", "street":"Wendenstraße", "number":"379", "locality":"Hamburg", "zip":"20537", "web":"http://www.globalconnect.dk", "mail":"info@globalconnect.de"},
  {"name":"GlobalConnect A/S", "street":"Flughafenstraße", "number":"54a", "locality":"Hamburg", "zip":"22335", "web":"http://www.globalconnect.dk", "mail":"info@globalconnect.de"},
  {"name":"Level 3 Communications", "street":"Süderstraße", "number":"198", "locality":"Hamburg", "zip":"20537", "web":"http://www.level3.com", "mail":"vertrieb@level3.com"},
  {"name":"TeliaSonera International Carrier", "street":"Flughafenstraße", "number":"54a", "locality":"Hamburg", "zip":"22335", "web":"http://www.teliasoneraic.com", "mail":"carrier-csc@teliasonera.com"},
  {"name":"e-shelter facility services GmbH", "street":"Langenhorner Chaussee", "number":"44", "locality":"Hamburg", "zip":"22335", "web":"http://www.e-shelter.de", "mail":"info@e-shelter.de"},
  {"name":"Easynet GmbH", "street":"Hamburger Schlossstraße", "number":"1", "locality":"Hamburg", "zip":"21079", "web":"http://www.easynet.com/de/de", "mail":"enquiries.ch@easynet.com"},
  {"name":"Easynet GmbH", "street":"König-Georg-Deich", "number":"1", "locality":"Hamburg", "zip":"21107", "web":"http://www.easynet.com/de/de", "mail":"enquiries.ch@easynet.com"},
  {"name":"Wieske's Crew GmbH", "street":"Humboldtstraße", "number":"51", "locality":"Hamburg", "zip":"22083", "web":"http://www.irz42.net", "mail":"info@irz42.net"},
  {"name":"Colt Technology Services", "street":"Flughafenstraße", "number":"x", "locality":"Hamburg", "zip":"22335", "web":"http://www.coltdatacentres.net", "mail":"dcsinfo@colt.net"},
  {"name":"Artfiles New Media GmbH", "street":"Wendenstraße", "number":"408", "locality":"Hamburg", "zip":"20537", "web":"http://www.artfiles.de", "mail":"info@artfiles.de"},
  {"name":"euNetworks", "street":"Guenther-Wagner-Alle", "number":"13", "locality":"Hannover", "zip":"30117", "web":"http://www.eunetworks.com", "mail":"noc@eunetworks.com"},
  {"name":"Hostway Deutschland GmbH", "street":"Am Mittelfelde", "number":"29", "locality":"Hannover", "zip":"30519", "web":"http://www.en.hostway.de", "mail":"info@hostway.de"},
  {"name":"DTS Systeme GmbH", "street":"Schrewestraße", "number":"4-8", "locality":"Herford", "zip":"32051", "web":"http://www.dts.de", "mail":"info@dts.de"},
  {"name":"TelemaxX Telekommunikations GmbH", "street":"Auf der Breit", "number":"5a", "locality":"76227", "zip":"Karlsruhe", "web":"http://www.telemaxx.de", "mail":"info@telemaxx.de"},
  {"name":"ADDIX Internet Services GmbH", "street":"Kaistraße", "number":"101", "locality":"Kiel", "zip":"24114", "web":"http://www.addix.net", "mail":"office@addix.net"},
  {"name":"noris network AG", "street":"Seidlstraße", "number":"3", "locality":"München", "zip":"80835", "web":"http://www.datacenter.de", "mail":"info@noris.de"},
  {"name":"Cable and Wireless plc.", "street":"Landsberger Straße", "number":"155", "locality":"München", "zip":"80687", "web":"http://www.cw.com", "mail":""},
  {"name":"Koninklijke KPN N.V", "street":"Seidlstraße", "number":"3", "locality":"München", "zip":"80335", "web":"http://www.kpn.de", "mail":"info@kpn.de"},
  {"name":"Level 3 Communications", "street":"Wamslerstraße", "number":"8", "locality":"München", "zip":"81829", "web":"http://www.level.3com", "mail":"vertrieb@level3.com"},
  {"name":"Koniklijke KPN N.V", "street":"Arnulfstraße", "number":"32", "locality":"München", "zip":"80335", "web":"http://www.kpn.de", "mail":"info@kpn.de"},
  {"name":"Contabo GmbH", "street":"Aschauer Straße", "number":"32a", "locality":"München", "zip":"81549", "web":"http://www.contabo.com", "mail":"info@contabo.com"},
  {"name":"Datacenter Muc", "street":"Martin-Kollar-Straße", "number":"4", "locality":"München", "zip":"81829", "web":"http://www.datacenter-muc.com", "mail":"info@datacenter-muc.com"},
  {"name":"TeliaSonera Internation Carrier", "street":"Stuttgarter Straße", "number":"2", "locality":"München", "zip":"80807", "web":"http://www.teliasoneraic.com", "mail":"carrier-csc@teliasonera.com"},
  {"name":"Systemec B.V.", "street":"An der Kleinbahn", "number":"1", "locality":"Nettetal", "zip":"41334", "web":"http://www.systemec.de", "mail":"info@systemec.de"},
  {"name":"IP Exchenge GmbH", "street":"Am Tower", "number":"5", "locality":"Nürnberg", "zip":"90475", "web":"http://www.ip-exchange.de", "mail":"info@qsc.de"},
  {"name":"Interoute Communications Ltd", "street":"Leyher Straße", "number":"142/144", "locality":"Nürnberg", "zip":"90431", "web":"http://www.interoute.com", "mail":"info@interoute.com"},
  {"name":"Koninklijke KPN N.V", "street":"Deutschherrnstraße", "number":"15-19", "locality":"Nürnberg", "zip":"90429", "web":"http://www.kpn.de", "mail":"info@kpn.de"},
  {"name":"noris network AG", "street":"Deutschherrnstraße", "number":"15-19", "locality":"Nürnberg", "zip":"90429", "web":"http://www.datacenter.de", "mail":"info@noris.de"},
  {"name":"noris network AG", "street":"Thomas-Mann-Straße", "number":"16-20", "locality":"Nürnberg", "zip":"90471", "web":"http://www.datacenter.de", "mail":"info@noris.de"},
  {"name":"Hetzner Online AG", "street":"Sigmundstraße", "number":"135", "locality":"Nürnberg", "zip":"90431", "web":"http://www.hetzner.de", "mail":"info@hetzner.de"},
  {"name":"Contabo GmbH", "street":"Gruenberger Straße", "number":"27", "locality":"Nürnberg", "zip":"90475", "web":"http://www.contabo.de", "mail":"info@contabo.com"},
  {"name":"KAMP", "street":"Vestische Straße", "number":"89-91", "locality":"Oberhausen", "zip":"46117", "web":"http://www.kamp-rechenzentrum.de", "mail":"info@kamp.de"},
  {"name":"SKYWAY DataCenter", "street":"Im Oberen Werk", "number":"1", "locality":"St. Ingbert", "zip":"66386", "web":"http://www.skyway-datacenter.de", "mail":"info@skyway-dc.com"},
  {"name":"Globalways AG", "street":"Neue Brücke", "number":"8", "locality":"Stuttgart", "zip":"70174", "web":"http://www.globalways.net", "mail":"info@globalways.net"},
  {"name":"interscholz Internet Services GmbH & Co. KG", "street":"Heinrich-Laengerer-Straße", "number":"10", "locality":"Leonberg", "zip":"71229", "web":"http://www.interscholz.net", "mail":"info@interscholz.net"},
  {"name":"interscholz Internet Services GmbH & Co. KG", "street":"Zettachring", "number":"10A", "locality":"Stuttgart", "zip":"70567", "web":"http://www.interscholz.net", "mail":"info@interscholz.net"},
  {"name":"CMO Internet Dienstleistungen GmbH", "street":"Birnenweg", "number":"15", "locality":"Reutlingen", "zip":"72760", "web":"http://www.cmo.de/index.php?id=202", "mail":"info@cmo.de"},
  {"name":"Telia Sonera Internation Carrier", "street":"Zettachring", "number":"12", "locality":"Stuttgart", "zip":"70567", "web":"http://www.teliasoneraic.com", "mail":"carrier-csc@teliasonera.com"},
  {"name":"Versatel AG", "street":"Löwentorstraße", "number":"68", "locality":"Stuttgart", "zip":"70376", "web":"http://www.versatel.de", "mail":"info@versatel.de"}
  ]
}
